{
    "element_count": 15,
    "links": {
        "next": "http://www.neowsapp.com/rest/v1/feed?start_date=2019-10-25&end_date=2019-10-25&detailed=true&api_key=13L6o25sYaUm7Ac1Op2e09FrWudmH6N0rRhVBoCx",
        "prev": "http://www.neowsapp.com/rest/v1/feed?start_date=2019-10-23&end_date=2019-10-23&detailed=true&api_key=13L6o25sYaUm7Ac1Op2e09FrWudmH6N0rRhVBoCx",
        "self": "http://www.neowsapp.com/rest/v1/feed?start_date=2019-10-24&end_date=2019-10-24&detailed=true&api_key=13L6o25sYaUm7Ac1Op2e09FrWudmH6N0rRhVBoCx"
    },
    "near_earth_objects": {
        "2019-10-24": [
            {
                "absolute_magnitude_h": 21.8,
                "close_approach_data": [
                    {
                        "close_approach_date": "2019-10-24",
                        "close_approach_date_full": "2019-Oct-24 21:03",
                        "epoch_date_close_approach": 1571950980000,
                        "miss_distance": {
                            "astronomical": "0.2087801892",
                            "kilometers": "31233071.602517004",
                            "lunar": "81.2154935988",
                            "miles": "19407330.7639184952"
                        },
                        "orbiting_body": "Earth",
                        "relative_velocity": {
                            "kilometers_per_hour": "26073.6875737023",
                            "kilometers_per_second": "7.2426909927",
                            "miles_per_hour": "16201.1754815596"
                        }
                    }
                ],
                "estimated_diameter": {
                    "feet": {
                        "estimated_diameter_max": 851.1870938635,
                        "estimated_diameter_min": 380.6624406898
                    },
                    "kilometers": {
                        "estimated_diameter_max": 0.2594418179,
                        "estimated_diameter_min": 0.1160259082
                    },
                    "meters": {
                        "estimated_diameter_max": 259.4418179074,
                        "estimated_diameter_min": 116.0259082094
                    },
                    "miles": {
                        "estimated_diameter_max": 0.1612096218,
                        "estimated_diameter_min": 0.0720951346
                    }
                },
                "id": "2488490",
                "is_potentially_hazardous_asteroid": true,
                "is_sentry_object": false,
                "links": {
                    "self": "http://www.neowsapp.com/rest/v1/neo/2488490?api_key=13L6o25sYaUm7Ac1Op2e09FrWudmH6N0rRhVBoCx"
                },
                "name": "488490 (2000 AF205)",
                "nasa_jpl_url": "http://ssd.jpl.nasa.gov/sbdb.cgi?sstr=2488490",
                "neo_reference_id": "2488490",
                "orbital_data": {
                    "aphelion_distance": "1.320168161106269",
                    "ascending_node_longitude": "220.0488540550544",
                    "data_arc_in_days": 6991,
                    "eccentricity": ".2767478580283566",
                    "epoch_osculation": "2458600.5",
                    "equinox": "J2000",
                    "first_observation_date": "2000-01-08",
                    "inclination": "2.408712554915414",
                    "jupiter_tisserand_invariant": "5.888",
                    "last_observation_date": "2019-02-28",
                    "mean_anomaly": "219.0697431518238",
                    "mean_motion": ".9373847826664256",
                    "minimum_orbit_intersection": ".0179927",
                    "observations_used": 181,
                    "orbit_class": {
                        "orbit_class_description": "Near-Earth asteroid orbits which cross the Earth\u2019s orbit similar to that of 1862 Apollo",
                        "orbit_class_range": "a (semi-major axis) > 1.0 AU; q (perihelion) < 1.017 AU",
                        "orbit_class_type": "APO"
                    },
                    "orbit_determination_date": "2019-03-01 07:22:23",
                    "orbit_id": "41",
                    "orbit_uncertainty": "0",
                    "orbital_period": "384.0471988204958",
                    "perihelion_argument": "127.3089576726139",
                    "perihelion_distance": ".747848875781445",
                    "perihelion_time": "2458750.844084365542",
                    "semi_major_axis": "1.034008518443857"
                }
            },
            {
                "absolute_magnitude_h": 27.614,
                "close_approach_data": [
                    {
                        "close_approach_date": "2019-10-24",
                        "close_approach_date_full": "2019-Oct-24 03:24",
                        "epoch_date_close_approach": 1571887440000,
                        "miss_distance": {
                            "astronomical": "0.1625125913",
                            "kilometers": "24311537.506660531",
                            "lunar": "63.2173980157",
                            "miles": "15106488.9094400878"
                        },
                        "orbiting_body": "Earth",
                        "relative_velocity": {
                            "kilometers_per_hour": "19777.6325149094",
                            "kilometers_per_second": "5.4937868097",
                            "miles_per_hour": "12289.0517146113"
                        }
                    }
                ],
                "estimated_diameter": {
                    "feet": {
                        "estimated_diameter_max": 58.5093172072,
                        "estimated_diameter_min": 26.1661621185
                    },
                    "kilometers": {
                        "estimated_diameter_max": 0.0178336393,
                        "estimated_diameter_min": 0.007975446
                    },
                    "meters": {
                        "estimated_diameter_max": 17.8336393141,
                        "estimated_diameter_min": 7.9754459585
                    },
                    "miles": {
                        "estimated_diameter_max": 0.0110813063,
                        "estimated_diameter_min": 0.0049557108
                    }
                },
                "id": "3840855",
                "is_potentially_hazardous_asteroid": false,
                "is_sentry_object": false,
                "links": {
                    "self": "http://www.neowsapp.com/rest/v1/neo/3840855?api_key=13L6o25sYaUm7Ac1Op2e09FrWudmH6N0rRhVBoCx"
                },
                "name": "(2019 GX3)",
                "nasa_jpl_url": "http://ssd.jpl.nasa.gov/sbdb.cgi?sstr=3840855",
                "neo_reference_id": "3840855",
                "orbital_data": {
                    "aphelion_distance": "1.081411649881406",
                    "ascending_node_longitude": "11.71064505879854",
                    "data_arc_in_days": 3,
                    "eccentricity": ".138009983847685",
                    "epoch_osculation": "2458600.5",
                    "equinox": "J2000",
                    "first_observation_date": "2019-04-05",
                    "inclination": "6.36893374991835",
                    "jupiter_tisserand_invariant": "6.317",
                    "last_observation_date": "2019-04-08",
                    "mean_anomaly": "139.1203700949296",
                    "mean_motion": "1.063987721949709",
                    "minimum_orbit_intersection": ".0110608",
                    "observations_used": 21,
                    "orbit_class": {
                        "orbit_class_description": "Near-Earth asteroid orbits similar to that of 2062 Aten",
                        "orbit_class_range": "a (semi-major axis) < 1.0 AU; q (perihelion) > 0.983 AU",
                        "orbit_class_type": "ATE"
                    },
                    "orbit_determination_date": "2019-04-08 17:12:04",
                    "orbit_id": "1",
                    "orbit_uncertainty": "6",
                    "orbital_period": "338.3497690559028",
                    "perihelion_argument": "53.91726718861661",
                    "perihelion_distance": ".8191193915512601",
                    "perihelion_time": "2458469.746263631691",
                    "semi_major_axis": ".9502655207163333"
                }
            }
        ]
    }
}
